QIANFAN-1               
1 60379U 24140A   26008.57802934  .00000180  00000+0  26013-3 0  9993
2 60379  88.9779 296.5059 0018387 132.2865 227.9849 13.50984980 70976
QIANFAN-2               
1 60380U 24140B   26008.60693053  .00000184  00000+0  26567-3 0  9997
2 60380  88.9765 296.3385 0014312 105.2437 255.0298 13.50988849 71038
QIANFAN-3               
1 60381U 24140C   26008.61509058  .00000181  00000+0  26195-3 0  9994
2 60381  88.9758 296.4682 0015178 116.9275 243.3429 13.50989379 70946
QIANFAN-4               
1 60382U 24140D   26008.59034952  .00000186  00000+0  26925-3 0  9994
2 60382  88.9782 296.3752 0014497 107.7239 252.5496 13.50985045 71068
QIANFAN-5               
1 60383U 24140E   26008.56576527  .00000190  00000+0  27507-3 0  9993
2 60383  88.9757 296.4987 0016177 127.9280 232.3336 13.50987093 70927
QIANFAN-6               
1 60384U 24140F   26008.58634382  .00000181  00000+0  26138-3 0  9999
2 60384  88.9784 296.2500 0014505 113.1339 247.1342 13.50987321 71120
QIANFAN-7               
1 60385U 24140G   26008.58870740  .00000915  00000+0  36524-3 0  9995
2 60385  88.9795 290.5715 0013960 320.6002  39.4175 14.27699622 74223
QIANFAN-8               
1 60386U 24140H   26008.59463196  .00000175  00000+0  25211-3 0  9999
2 60386  88.9786 296.4870 0017910 116.1582 244.1413 13.50988663 70970
